PHISAT 2                
1 60470U 24149C   26068.78834181  .00008925  00000+0  31421-3 0  9996
2 60470  97.3806 148.6498 0001175 168.6230 191.5037 15.29548631 86792
STARLINK-33627          
1 63068U 25035S   26068.26563111  .00022931  00000+0  84013-3 0  9990
2 63068  42.9957 149.5809 0000900 209.9613 150.1187 15.27583090 59654
